[{"OBJECT_NAME":"STARLINK-35042","OBJECT_ID":"2025-195Z","EPOCH":"2026-03-09T17:03:36.185472","MEAN_MOTION":15.302102,"ECCENTRICITY":6.942e-5,"INCLINATION":53.1609,"RA_OF_ASC_NODE":258.3063,"ARG_OF_PERICENTER":132.4539,"MEAN_ANOMALY":227.6521,"EPHEMERIS_TYPE":0,"CLASSIFICATION_TYPE":"U","NORAD_CAT_ID":65481,"ELEMENT_SET_NO":999,"REV_AT_EPOCH":2997,"BSTAR":0.00079967789,"MEAN_MOTION_DOT":0.00023407,"MEAN_MOTION_DDOT":0},{"OBJECT_NAME":"CZ-2C R\/B","OBJECT_ID":"2024-218A","EPOCH":"2026-03-09T22:16:31.791072","MEAN_MOTION":15.22960743,"ECCENTRICITY":0.00453409,"INCLINATION":97.5416,"RA_OF_ASC_NODE":83.973,"ARG_OF_PERICENTER":359.5317,"MEAN_ANOMALY":0.5869,"EPHEMERIS_TYPE":0,"CLASSIFICATION_TYPE":"U","NORAD_CAT_ID":62078,"ELEMENT_SET_NO":999,"REV_AT_EPOCH":7134,"BSTAR":0.00039378379,"MEAN_MOTION_DOT":9.445e-5,"MEAN_MOTION_DDOT":0}]
